{"type": "FeatureCollection", "features": [ {"type": "Feature", "properties": {"norad_id": 35453, "name": "COSMOS 2251 DEB", "group": "cosmos-2251-debris", "lat": -72.03450859392487, "lon": -22.810380973036278, "alt_km": 782.6901903447124, "timestamp": "2025-12-02T10:50:47.671946+00:00", "meta": {"OBJECT_NAME": "COSMOS 2251 DEB", "OBJECT_ID": "1993-036AKX", "EPOCH": "2025-11-29T13:05:55.541472", "MEAN_MOTION": 14.37887031, "ECCENTRICITY": 0.00682488, "INCLINATION": 74.0102, "RA_OF_ASC_NODE": 44.7136, "ARG_OF_PERICENTER": 181.7658, "MEAN_ANOMALY": 178.3266, "EPHEMERIS_TYPE": 0, "CLASSIFICATION_TYPE": "U", "NORAD_CAT_ID": 35453, "ELEMENT_SET_NO": 999, "REV_AT_EPOCH": 86029, "BSTAR": 0.00074250285, "MEAN_MOTION_DOT": 2.276e-05, "MEAN_MOTION_DDOT": 0}, "tle": {"line1": "1 35453U 93036AKX 25333.54578173  .00002276  00000+0  74250-3 0  9994", "line2": "2 35453  74.0102  44.7136 0068248 181.7658 178.3266 14.37887031860295"}}, "geometry": {"type": "Point", "coordinates": [-22.810380973036278, -72.03450859392487]}}, {"type": "Feature", "properties": {"norad_id": 35455, "name": "COSMOS 2251 DEB", "group": "cosmos-2251-debris", "lat": 64.90607049750443, "lon": -8.181429967313855, "alt_km": 652.5178026855128, "timestamp": "2025-12-02T10:50:47.671957+00:00", "meta": {"OBJECT_NAME": "COSMOS 2251 DEB", "OBJECT_ID": "1993-036AKZ", "EPOCH": "2025-12-01T22:55:52.017888", "MEAN_MOTION": 14.49196683, "ECCENTRICITY": 0.0098678, "INCLINATION": 74.0279, "RA_OF_ASC_NODE": 315.0461, "ARG_OF_PERICENTER": 61.3059, "MEAN_ANOMALY": 299.7975, "EPHEMERIS_TYPE": 0, "CLASSIFICATION_TYPE": "U", "NORAD_CAT_ID": 35455, "ELEMENT_SET_NO": 999, "REV_AT_EPOCH": 86387, "BSTAR": 0.0015035, "MEAN_MOTION_DOT": 6.068e-05, "MEAN_MOTION_DDOT": 0}, "tle": {"line1": "1 35455U 93036AKZ 25335.95546317  .00006068  00000+0  15035-2 0  9996", "line2": "2 35455  74.0279 315.0461 0098678  61.3059 299.7975 14.49196683863876"}}, "geometry": {"type": "Point", "coordinates": [-8.181429967313855, 64.90607049750443]}}, {"type": "Feature", "properties": {"norad_id": 35456, "name": "COSMOS 2251 DEB", "group": "cosmos-2251-debris", "lat": 50.229498734296556, "lon": 157.74100166783296, "alt_km": 638.3699896932139, "timestamp": "2025-12-02T10:50:47.671967+00:00", "meta": {"OBJECT_NAME": "COSMOS 2251 DEB", "OBJECT_ID": "1993-036ALA", "EPOCH": "2025-12-01T03:33:20.272320", "MEAN_MOTION": 14.6906786, "ECCENTRICITY": 0.00649292, "INCLINATION": 73.9491, "RA_OF_ASC_NODE": 140.0403, "ARG_OF_PERICENTER": 352.5373, "MEAN_ANOMALY": 7.4823, "EPHEMERIS_TYPE": 0, "CLASSIFICATION_TYPE": "U", "NORAD_CAT_ID": 35456, "ELEMENT_SET_NO": 999, "REV_AT_EPOCH": 65705, "BSTAR": 0.0015385209, "MEAN_MOTION_DOT": 9.308e-05, "MEAN_MOTION_DDOT": 0}, "tle": {"line1": "1 35456U 93036ALA 25335.14815130  .00009308  00000+0  15385-2 0  9998", "line2": "2 35456  73.9491 140.0403 0064929 352.5373   7.4823 14.69067860657052"}}, "geometry": {"type": "Point", "coordinates": [157.74100166783296, 50.229498734296556]}}, {"type": "Feature", "properties": {"norad_id": 35459, "name": "COSMOS 2251 DEB", "group": "cosmos-2251-debris", "lat": 7.8635382439593045, "lon": 24.114153036992455, "alt_km": 756.9382723644685, "timestamp": "2025-12-02T10:50:47.671978+00:00", "meta": {"OBJECT_NAME": "COSMOS 2251 DEB", "OBJECT_ID": "1993-036ALD", "EPOCH": "2025-12-01T22:21:32.006880", "MEAN_MOTION": 14.37436198, "ECCENTRICITY": 0.0016682, "INCLINATION": 73.8706, "RA_OF_ASC_NODE": 207.3714, "ARG_OF_PERICENTER": 158.6603, "MEAN_ANOMALY": 201.5249, "EPHEMERIS_TYPE": 0, "CLASSIFICATION_TYPE": "U", "NORAD_CAT_ID": 35459, "ELEMENT_SET_NO": 999, "REV_AT_EPOCH": 58206, "BSTAR": 0.00027997, "MEAN_MOTION_DOT": 8.11e-06, "MEAN_MOTION_DDOT": 0}, "tle": {"line1": "1 35459U 93036ALD 25335.93162045  .00000811  00000+0  27997-3 0  9991", "line2": "2 35459  73.8706 207.3714 0016682 158.6603 201.5249 14.37436198582065"}}, "geometry": {"type": "Point", "coordinates": [24.114153036992455, 7.8635382439593045]}}, {"type": "Feature", "properties": {"norad_id": 35462, "name": "COSMOS 2251 DEB", "group": "cosmos-2251-debris", "lat": 0.09200601491437069, "lon": 107.341055104133, "alt_km": 848.0920066944009, "timestamp": "2025-12-02T10:50:47.671989+00:00", "meta": {"OBJECT_NAME": "COSMOS 2251 DEB", "OBJECT_ID": "1993-036ALG", "EPOCH": "2025-12-01T03:45:45.448128", "MEAN_MOTION": 14.29124029, "ECCENTRICITY": 0.00870444, "INCLINATION": 74.036, "RA_OF_ASC_NODE": 289.718, "ARG_OF_PERICENTER": 327.319, "MEAN_ANOMALY": 32.2589, "EPHEMERIS_TYPE": 0, "CLASSIFICATION_TYPE": "U", "NORAD_CAT_ID": 35462, "ELEMENT_SET_NO": 999, "REV_AT_EPOCH": 66215, "BSTAR": 0.0017949723, "MEAN_MOTION_DOT": 4.718e-05, "MEAN_MOTION_DDOT": 0}, "tle": {"line1": "1 35462U 93036ALG 25335.15677602  .00004718  00000+0  17950-2 0  9996", "line2": "2 35462  74.0360 289.7180 0087044 327.3190  32.2589 14.29124029662158"}}, "geometry": {"type": "Point", "coordinates": [107.341055104133, 0.09200601491437069]}}, {"type": "Feature", "properties": {"norad_id": 35465, "name": "COSMOS 2251 DEB", "group": "cosmos-2251-debris", "lat": 39.83520484092139, "lon": -129.93752452265392, "alt_km": 699.3698661372337, "timestamp": "2025-12-02T10:50:47.671999+00:00", "meta": {"OBJECT_NAME": "COSMOS 2251 DEB", "OBJECT_ID": "1993-036ALK", "EPOCH": "2025-11-29T22:48:34.232544", "MEAN_MOTION": 14.44263019, "ECCENTRICITY": 0.00634289, "INCLINATION": 73.9997, "RA_OF_ASC_NODE": 220.8763, "ARG_OF_PERICENTER": 24.0529, "MEAN_ANOMALY": 336.3567, "EPHEMERIS_TYPE": 0, "CLASSIFICATION_TYPE": "U", "NORAD_CAT_ID": 35465, "ELEMENT_SET_NO": 999, "REV_AT_EPOCH": 87057, "BSTAR": 0.00049692277, "MEAN_MOTION_DOT": 1.723e-05, "MEAN_MOTION_DDOT": 0}, "tle": {"line1": "1 35465U 93036ALK 25333.95039621  .00001723  00000+0  49692-3 0  9990", "line2": "2 35465  73.9997 220.8763 0063428  24.0529 336.3567 14.44263019870576"}}, "geometry": {"type": "Point", "coordinates": [-129.93752452265392, 39.83520484092139]}}, {"type": "Feature", "properties": {"norad_id": 35469, "name": "COSMOS 2251 DEB", "group": "cosmos-2251-debris", "lat": 32.02985018043214, "lon": 53.53675250146189, "alt_km": 777.801338795648, "timestamp": "2025-12-02T10:50:47.672009+00:00", "meta": {"OBJECT_NAME": "COSMOS 2251 DEB", "OBJECT_ID": "1993-036ALP", "EPOCH": "2025-12-01T11:30:18.514944", "MEAN_MOTION": 14.49801168, "ECCENTRICITY": 0.00774879, "INCLINATION": 74.0179, "RA_OF_ASC_NODE": 45.0354, "ARG_OF_PERICENTER": 203.0672, "MEAN_ANOMALY": 156.7004, "EPHEMERIS_TYPE": 0, "CLASSIFICATION_TYPE": "U", "NORAD_CAT_ID": 35469, "ELEMENT_SET_NO": 999, "REV_AT_EPOCH": 87948, "BSTAR": 0.0001544866, "MEAN_MOTION_DOT": 5.89e-06, "MEAN_MOTION_DDOT": 0}, "tle": {"line1": "1 35469U 93036ALP 25335.47938096  .00000589  00000+0  15449-3 0  9999", "line2": "2 35469  74.0179  45.0354 0077487 203.0672 156.7004 14.49801168879482"}}, "geometry": {"type": "Point", "coordinates": [53.53675250146189, 32.02985018043214]}}, {"type": "Feature", "properties": {"norad_id": 35475, "name": "COSMOS 2251 DEB", "group": "cosmos-2251-debris", "lat": -52.98740751067424, "lon": 27.909539288116463, "alt_km": 655.8216538192046, "timestamp": "2025-12-02T10:50:47.672020+00:00", "meta": {"OBJECT_NAME": "COSMOS 2251 DEB", "OBJECT_ID": "1993-036ALV", "EPOCH": "2025-12-01T20:42:06.595776", "MEAN_MOTION": 14.69376541, "ECCENTRICITY": 0.0021347, "INCLINATION": 74.0221, "RA_OF_ASC_NODE": 186.7148, "ARG_OF_PERICENTER": 260.4163, "MEAN_ANOMALY": 99.4595, "EPHEMERIS_TYPE": 0, "CLASSIFICATION_TYPE": "U", "NORAD_CAT_ID": 35475, "ELEMENT_SET_NO": 999, "REV_AT_EPOCH": 65457, "BSTAR": 0.0015058, "MEAN_MOTION_DOT": 8.914e-05, "MEAN_MOTION_DDOT": 0}, "tle": {"line1": "1 35475U 93036ALV 25335.86257634  .00008914  00000+0  15058-2 0  9996", "line2": "2 35475  74.0221 186.7148 0021347 260.4163  99.4595 14.69376541654570"}}, "geometry": {"type": "Point", "coordinates": [27.909539288116463, -52.98740751067424]}}, {"type": "Feature", "properties": {"norad_id": 35476, "name": "COSMOS 2251 DEB", "group": "cosmos-2251-debris", "lat": -40.877558684180634, "lon": -84.49066911046033, "alt_km": 661.3074858910086, "timestamp": "2025-12-02T10:50:47.672030+00:00", "meta": {"OBJECT_NAME": "COSMOS 2251 DEB", "OBJECT_ID": "1993-036ALW", "EPOCH": "2025-12-01T18:07:58.546272", "MEAN_MOTION": 14.75256921, "ECCENTRICITY": 0.0017244, "INCLINATION": 73.9778, "RA_OF_ASC_NODE": 82.4733, "ARG_OF_PERICENTER": 71.028, "MEAN_ANOMALY": 54.6813, "EPHEMERIS_TYPE": 0, "CLASSIFICATION_TYPE": "U", "NORAD_CAT_ID": 35476, "ELEMENT_SET_NO": 999, "REV_AT_EPOCH": 87725, "BSTAR": 0.001969, "MEAN_MOTION_DOT": 0.00013352, "MEAN_MOTION_DDOT": 0}, "tle": {"line1": "1 35476U 93036ALW 25335.75553873  .00013352  00000+0  19690-2 0  9997", "line2": "2 35476  73.9778  82.4733 0017244  71.0280  54.6813 14.75256921877259"}}, "geometry": {"type": "Point", "coordinates": [-84.49066911046033, -40.877558684180634]}}, {"type": "Feature", "properties": {"norad_id": 35580, "name": "COSMOS 2251 DEB", "group": "cosmos-2251-debris", "lat": 65.07717893042191, "lon": -22.192538603201594, "alt_km": 953.7910940703814, "timestamp": "2025-12-02T10:50:47.672040+00:00", "meta": {"OBJECT_NAME": "COSMOS 2251 DEB", "OBJECT_ID": "1993-036ALX", "EPOCH": "2025-11-11T02:25:47.460864", "MEAN_MOTION": 13.83664367, "ECCENTRICITY": 0.0284653, "INCLINATION": 73.9022, "RA_OF_ASC_NODE": 232.5156, "ARG_OF_PERICENTER": 243.9426, "MEAN_ANOMALY": 113.2144, "EPHEMERIS_TYPE": 0, "CLASSIFICATION_TYPE": "U", "NORAD_CAT_ID": 35580, "ELEMENT_SET_NO": 999, "REV_AT_EPOCH": 61819, "BSTAR": 0.0015271116, "MEAN_MOTION_DOT": 2.282e-05, "MEAN_MOTION_DDOT": 0}, "tle": {"line1": "1 35580U 93036ALX 25315.10124376  .00002282  00000+0  15271-2 0  9993", "line2": "2 35580  73.9022 232.5156 0284653 243.9426 113.2144 13.83664367618196"}}, "geometry": {"type": "Point", "coordinates": [-22.192538603201594, 65.07717893042191]}}]}